{
  "type": "FeatureCollection",
  "features": [
    {
      "type": "Feature",
      "properties": {
        "norad_id": 50032,
        "name": "COSMOS 1408 DEB",
        "group": "cosmos-1408-debris",
        "lat": 47.68132362247829,
        "lon": 61.064347094296636,
        "alt_km": 433.13582455751293,
        "timestamp": "2025-12-18T07:01:54.860131+00:00",
        "meta_object_name": "COSMOS 1408 DEB",
        "meta_object_id": "1982-092RU",
        "meta_epoch": "2025-12-17T21:30:05.103360",
        "meta_mean_motion": 15.45745388,
        "meta_eccentricity": 0.00157397,
        "meta_inclination": 82.5644,
        "meta_ra_of_asc_node": 53.2246,
        "meta_arg_of_pericenter": 189.1418,
        "meta_mean_anomaly": 170.9547,
        "meta_ephemeris_type": 0,
        "meta_classification_type": "U",
        "meta_norad_cat_id": 50032,
        "meta_element_set_no": 999,
        "meta_rev_at_epoch": 22683,
        "meta_bstar": 9.1007793e-05,
        "meta_mean_motion_dot": 4.461e-05,
        "meta_mean_motion_ddot": 0,
        "tle_line1": "1 50032U 82092RU  25351.89589240  .00004461  00000+0  91008-4 0  9998",
        "tle_line2": "2 50032  82.5644  53.2246 0015739 189.1418 170.9547 15.45745388226834"
      },
      "geometry": {
        "type": "Point",
        "coordinates": [
          61.064347094296636,
          47.68132362247829
        ]
      }
    },
    {
      "type": "Feature",
      "properties": {
        "norad_id": 50058,
        "name": "COSMOS 1408 DEB",
        "group": "cosmos-1408-debris",
        "lat": -78.00293460141314,
        "lon": -78.84434787684465,
        "alt_km": 393.18496943372975,
        "timestamp": "2025-12-18T07:01:54.860160+00:00",
        "meta_object_name": "COSMOS 1408 DEB",
        "meta_object_id": "1982-092SW",
        "meta_epoch": "2025-12-17T14:34:15.421152",
        "meta_mean_motion": 15.64394944,
        "meta_eccentricity": 0.00162208,
        "meta_inclination": 82.6132,
        "meta_ra_of_asc_node": 64.2468,
        "meta_arg_of_pericenter": 82.2196,
        "meta_mean_anomaly": 278.0904,
        "meta_ephemeris_type": 0,
        "meta_classification_type": "U",
        "meta_norad_cat_id": 50058,
        "meta_element_set_no": 999,
        "meta_rev_at_epoch": 22880,
        "meta_bstar": 0.00027404563,
        "meta_mean_motion_dot": 0.00026488,
        "meta_mean_motion_ddot": 0,
        "tle_line1": "1 50058U 82092SW  25351.60712293  .00026488  00000+0  27405-3 0  9993",
        "tle_line2": "2 50058  82.6132  64.2468 0016220  82.2196 278.0904 15.64394944228800"
      },
      "geometry": {
        "type": "Point",
        "coordinates": [
          -78.84434787684465,
          -78.00293460141314
        ]
      }
    },
    {
      "type": "Feature",
      "properties": {
        "norad_id": 50404,
        "name": "COSMOS 1408 DEB",
        "group": "cosmos-1408-debris",
        "lat": 82.19741445659815,
        "lon": -59.762684188821225,
        "alt_km": 512.147438670755,
        "timestamp": "2025-12-18T07:01:54.860177+00:00",
        "meta_object_name": "COSMOS 1408 DEB",
        "meta_object_id": "1982-092ADS",
        "meta_epoch": "2025-12-17T21:06:47.947104",
        "meta_mean_motion": 15.14572533,
        "meta_eccentricity": 0.01699663,
        "meta_inclination": 82.2037,
        "meta_ra_of_asc_node": 209.7681,
        "meta_arg_of_pericenter": 181.2937,
        "meta_mean_anomaly": 178.7882,
        "meta_ephemeris_type": 0,
        "meta_classification_type": "U",
        "meta_norad_cat_id": 50404,
        "meta_element_set_no": 999,
        "meta_rev_at_epoch": 21271,
        "meta_bstar": 0.0025831071,
        "meta_mean_motion_dot": 0.0006914,
        "meta_mean_motion_ddot": 0,
        "tle_line1": "1 50404U 82092ADS 25351.87972161  .00069140  00000+0  25831-2 0  9991",
        "tle_line2": "2 50404  82.2037 209.7681 0169966 181.2937 178.7882 15.14572533212718"
      },
      "geometry": {
        "type": "Point",
        "coordinates": [
          -59.762684188821225,
          82.19741445659815
        ]
      }
    },
    {
      "type": "Feature",
      "properties": {
        "norad_id": 50621,
        "name": "COSMOS 1408 DEB",
        "group": "cosmos-1408-debris",
        "lat": 51.492214677873385,
        "lon": -121.04081968040099,
        "alt_km": 372.2073414522938,
        "timestamp": "2025-12-18T07:01:54.860190+00:00",
        "meta_object_name": "COSMOS 1408 DEB",
        "meta_object_id": "1982-092ALR",
        "meta_epoch": "2025-12-17T19:41:17.239488",
        "meta_mean_motion": 15.5692348,
        "meta_eccentricity": 0.00290109,
        "meta_inclination": 82.5704,
        "meta_ra_of_asc_node": 68.8912,
        "meta_arg_of_pericenter": 133.8684,
        "meta_mean_anomaly": 226.4975,
        "meta_ephemeris_type": 0,
        "meta_classification_type": "U",
        "meta_norad_cat_id": 50621,
        "meta_element_set_no": 999,
        "meta_rev_at_epoch": 22329,
        "meta_bstar": 0.00030104839,
        "meta_mean_motion_dot": 0.00022149,
        "meta_mean_motion_ddot": 0,
        "tle_line1": "1 50621U 82092ALR 25351.82033842  .00022149  00000+0  30105-3 0  9990",
        "tle_line2": "2 50621  82.5704  68.8912 0029010 133.8684 226.4975 15.56923480223297"
      },
      "geometry": {
        "type": "Point",
        "coordinates": [
          -121.04081968040099,
          51.492214677873385
        ]
      }
    }
  ]
}